satname,norad_id,inclination_deg,eccentricity,mean_motion_rev_per_day,perigee_km,apogee_km,l1,l2
STARLINK-1392,45677,53.1577,0.0001442,15.29349475,476.767140880037,478.7443803521992,1 45677U 20035W   26083.49151324 -.00001722  00000+0 -47362-4 0  9996,2 45677  53.1577 356.0925 0001442  86.5446 273.5719 15.29349475321024
STARLINK-1394,45679,53.0482,0.0003665,15.522252,407.7427072211822,412.71858070420603,1 45679U 20035Y   26083.17828334  .00048491  00000+0  78841-3 0  9992,2 45679  53.0482 326.9182 0003665 183.2032 176.8954 15.52225200321409
STARLINK-1402,45685,53.0477,0.0001693,15.46927862,424.5674221327281,426.87120788098946,1 45685U 20035AE  26082.94133222  .00041422  00000+0  81341-3 0  9994,2 45685  53.0477 315.4117 0001693 241.3302 118.7535 15.46927862321558
STARLINK-1404,45686,53.1601,0.0001965,15.31322975,470.5180924992046,473.21014293846747,1 45686U 20035AF  26082.99493803  .00018673  00000+0  61917-3 0  9993,2 45686  53.1601 343.2024 0001965 121.9745 238.1448 15.31322975321166
STARLINK-1413,45689,53.16,0.000133,15.30187515,474.3408468491152,476.16384841558465,1 45689U 20035AJ  26083.00612354  .00003480  00000+0  12961-3 0  9998,2 45689  53.1600 343.0815 0001330  91.3017 268.8136 15.30187515321085
STARLINK-1417,45693,53.0517,0.0001626,15.13343153,524.8905795717837,527.1358092149994,1 45693U 20035AN  26083.46073313  .00015911  00000+0  89709-3 0  9995,2 45693  53.0517 347.3163 0001626 275.4622  84.6185 15.13343153321131
STARLINK-1420,45695,53.0517,0.0004306,15.56318906,395.403497191689,401.2393832003854,1 45695U 20035AQ  26083.33072618  .00056618  00000+0  79107-3 0  9990,2 45695  53.0517 311.6246 0004306 173.8900 186.2164 15.56318906321633
STARLINK-1422,45696,53.159,0.0001287,15.30191996,474.35693853768043,476.1209975118509,1 45696U 20035AR  26083.40538779  .00001905  00000+0  76443-4 0  9994,2 45696  53.1590 341.2309 0001287  92.4727 267.6421 15.30191996321228
STARLINK-1351,45697,53.0499,0.000423,15.54865837,399.6744252022636,405.410880188444,1 45697U 20035AS  26082.93437571  .00055330  00000+0  81583-3 0  9991,2 45697  53.0499 312.8867 0004230 195.8435 164.2444 15.54865837321588
STARLINK-1398,45699,53.0263,0.0008874,16.16131629,224.2116960796102,235.93995219989392,1 45699U 20035AU  26083.84789235  .01263022  11853-2  86559-3 0  9990,2 45699  53.0263 220.4122 0008874 309.2561  50.7687 16.16131629322950
STARLINK-1400,45700,53.05,0.0007628,15.52980913,402.85173734464206,413.20471101064595,1 45700U 20035AV  26083.50060286  .00067987  00000+0  10693-2 0  9999,2 45700  53.0500 311.6923 0007628 152.0334 208.1087 15.52980913321642
STARLINK-1403,45701,53.1581,0.0001796,15.29362476,476.48559489989384,478.9482176230231,1 45701U 20035AW  26083.36860262 -.00000259  00000+0  33772-5 0  9992,2 45701  53.1581 328.4189 0001796  99.1671 260.9532 15.29362476321393
STARLINK-1407,45703,53.0313,0.0006709,15.63111506,374.1423626134483,383.2086536368506,1 45703U 20035AY  26083.16239776  .00080346  00000+0  86172-3 0  9996,2 45703  53.0313 245.0689 0006709 161.3055 198.8206 15.63111506322553
STARLINK-1411,45706,53.0415,0.0003465,15.65161609,370.4348236310725,375.11320496398184,1 45706U 20035BB  26083.52211068  .00100690  00000+0  99294-3 0  9997,2 45706  53.0415 268.7822 0003465 208.7281 151.3543 15.65161609322248
STARLINK-1423,45710,53.0492,0.0007368,15.55353942,396.1289992994607,406.11891824831037,1 45710U 20035BF  26082.93111559  .00051618  00000+0  74789-3 0  9997,2 45710  53.0492 313.2365 0007368 167.6850 192.4342 15.55353942321566
STARLINK-1433,45711,53.049,0.0007163,15.57527464,389.96407461027957,399.6670064198206,1 45711U 20035BG  26083.51518265  .00077682  00000+0  10318-2 0  9994,2 45711  53.0490 309.2403 0007163 161.7263 198.4007 15.57527464321679
STARLINK-1434,45712,53.0552,0.0004766,15.27985525,478.5656141772906,485.10453956096353,1 45712U 20035BH  26083.35615303  .00026097  00000+0  95225-3 0  9993,2 45712  53.0552 312.0290 0004766 140.7226 219.4119 15.27985525321634
STARLINK-1465,45731,53.0494,0.0005448,15.52240011,406.4891830401348,413.88574137415526,1 45731U 20038B   26083.46346862  .00061898  00000+0  10018-2 0  9994,2 45731  53.0494 152.1417 0005448 345.2020  14.8829 15.52240011318673
STARLINK-1471,45735,53.0463,0.0001572,15.49677772,416.5996501914933,418.7362512680029,1 45735U 20038F   26083.48331527  .00025267  00000+0  45492-3 0  9997,2 45735  53.0463  71.1061 0001572   7.6124 352.4907 15.49677772319826
STARLINK-1480,45741,53.0522,0.0001358,15.54125435,403.7749652672037,405.6171827301014,1 45741U 20038M   26083.58335647  .00103888  00000+0  15582-2 0  9994,2 45741  53.0522 145.8640 0001358  63.5900  25.3920 15.54125435  5852
STARLINK-1500,45744,53.0354,0.0002734,15.35579594,457.33015500097645,461.06881058976796,1 45744U 20038Q   26083.52057249  .00022032  00000+0  63692-3 0  9997,2 45744  53.0354 123.1378 0002734 344.0561  16.0353 15.35579594319093
STARLINK-1504,45746,53.0229,9.46e-05,15.54118964,404.0732443179204,405.35655989779843,1 45746U 20038S   26083.22466846  .00030689  00000+0  46976-3 0  9996,2 45746  53.0229  72.0104 0000946  38.7398 321.3679 15.54118964319772
STARLINK-1506,45747,53.0767,0.0002768,15.26531075,484.2917069836976,488.09179938145917,1 45747U 20038T   26083.39259653  .00006374  00000+0  25360-3 0  9999,2 45747  53.0767 134.3350 0002768 319.2401  40.8390 15.26531075318932
STARLINK-1464,45751,53.0499,0.0003741,15.45258501,428.0714685254907,433.16577948337,1 45751U 20038X   26083.51217468  .00020087  00000+0  42332-3 0  9991,2 45751  53.0499 134.0567 0003741 345.5521  14.5378 15.45258501318949
STARLINK-1477,45754,53.0482,0.0002414,15.15210223,518.6751223387037,522.0057072345626,1 45754U 20038AA  26083.54387258  .00014925  00000+0  79975-3 0  9999,2 45754  53.0482 145.3998 0002414  30.1781 329.9350 15.15210223318789
STARLINK-1478,45755,53.0488,0.0004189,15.57536024,391.953545602144,397.6279044501716,1 45755U 20038AB  26083.53001207  .00050716  00000+0  67848-3 0  9990,2 45755  53.0488 125.9810 0004189 339.2977  20.7863 15.57536024319045
STARLINK-1493,45759,53.051,0.0004227,15.5257139,406.35248344544834,412.0905163212501,1 45759U 20038AF  26083.52320284  .00050841  00000+0  81575-3 0  9994,2 45759  53.0510 133.1623 0004227  46.8106 313.3256 15.52571390318941
STARLINK-1494,45760,53.0475,0.000684,15.76873354,334.7108825584546,343.90034405345705,1 45760U 20038AG  26083.58335647  .00063543  00000+0  38634-3 0  9992,2 45760  53.0475  77.4043 0006840  53.5710 228.5048 15.76873354  6028
STARLINK-1502,45764,53.0498,0.0005461,15.49273761,415.13751330381547,422.5611817926083,1 45764U 20038AL  26083.40366312  .00043421  00000+0  78498-3 0  9995,2 45764  53.0498 135.6186 0005461  36.4808 323.6571 15.49273761318916
STARLINK-1470,45772,53.0479,0.0003003,15.29099022,476.4453141564345,480.5634129593873,1 45772U 20038AU  26083.45018909  .00020911  00000+0  74065-3 0  9990,2 45772  53.0479 105.7381 0003003  43.1052 317.0182 15.29099022319331
STARLINK-1482,45773,53.1595,0.0001806,15.3109165,471.31682054154226,473.7912901507334,1 45773U 20038AV  26083.37315745  .00026934  00000+0  89327-3 0  9998,2 45773  53.1595 122.7745 0001806  59.4087 300.7092 15.31091650319096
STARLINK-1496,45780,53.0505,0.0002057,15.50447034,414.0224818879906,416.8173512034573,1 45780U 20038BC  26083.34822917  .00049012  00000+0  84894-3 0  9993,2 45780  53.0505 107.5422 0002057 307.5354  52.5467 15.50447034319281
STARLINK-1513,45786,53.1603,0.0001198,15.30179159,474.4562585621352,476.09833662783967,1 45786U 20038BJ  26083.51696642 -.00001886  00000+0 -51601-4 0  9992,2 45786  53.1603 122.2798 0001198  77.4064 282.7071 15.30179159319111
STARLINK-1522,46027,53.0651,0.0002365,15.09663127,535.5930783063814,538.8640462173316,1 46027U 20055A   26083.18288216  .00017625  00000+0  10977-2 0  9992,2 46027  53.0651  61.1302 0002365  86.4952 273.6309 15.09663127311076
STARLINK-1523,46028,53.1581,0.0001564,15.29333801,476.73033518718876,478.8748730953639,1 46028U 20055B   26083.21543662  .00000678  00000+0  35858-4 0  9993,2 46028  53.1581  59.2066 0001564  92.1981 267.9198 15.29333801311124
STARLINK-1526,46029,53.1593,0.0001415,15.29346709,476.7939170670861,478.7341370577442,1 46029U 20055C   26083.26996163 -.00001483  00000+0 -39061-4 0  9994,2 46029  53.1593  58.9185 0001415  93.9324 266.1838 15.29346709311124
STARLINK-1555,46032,53.1611,0.0001307,15.30188057,474.3549915202984,476.1464670727364,1 46032U 20055F   26083.58335647 -.00020262  00000+0 -67406-3 0  9996,2 46032  53.1611  57.5202 0001307  86.1884 249.0869 15.30188057  5585
STARLINK-1556,46033,53.1551,0.0001323,15.29349275,476.8493236424338,478.6633930250491,1 46033U 20055G   26083.58335647 -.00020786  00000+0 -71013-3 0  9997,2 46033  53.1551  57.4209 0001323  92.4031  37.4976 15.29349275  5775
STARLINK-1557,46034,53.1575,0.0001669,15.29336881,476.6491443654686,478.93765393270405,1 46034U 20055H   26083.22681440 -.00001154  00000+0 -27681-4 0  9995,2 46034  53.1575  58.9764 0001669  97.1663 262.9527 15.29336881311091
STARLINK-1558,46035,53.157,0.0001393,15.29328168,476.86440446357665,478.77447392753675,1 46035U 20055J   26083.18704608  .00002577  00000+0  10169-3 0  9993,2 46035  53.1570  59.3430 0001393  89.5399 270.5761 15.29328168311114
STARLINK-1560,46036,53.1559,0.0001462,15.29331296,476.8077512271402,478.8124301564585,1 46036U 20055K   26083.22357699  .00003313  00000+0  12719-3 0  9995,2 46036  53.1559  59.0314 0001462  99.1607 260.9559 15.29331296311121
STARLINK-1567,46038,53.0903,0.0001711,15.47177107,423.82456177030963,426.1525913426076,1 46038U 20055M   26083.58335647  .01342579  00000+0  23751-1 0  9992,2 46038  53.0903  56.8462 0001711  82.3976 248.2508 15.47177107  5834
STARLINK-1569,46039,53.1626,0.0001575,15.30176029,474.20722921503693,476.3660576627208,1 46039U 20055N   26083.19282109 -.00001853  00000+0 -50484-4 0  9998,2 46039  53.1626  59.3391 0001575  86.2208 273.8973 15.30176029311100
